{
  "norad_id": 58934,
  "name": "STARLINK-31337",
  "history": [
    {
      "epoch": "2026-03-28T18:38:10.376736",
      "apogee_km": 475.7644323864997,
      "perigee_km": 474.6752969135696,
      "latitude_deg": -45.83723611620623,
      "longitude_deg": 147.94486303976737,
      "semi_major_axis_km": 6853.356864650034,
      "eccentricity": 7.946e-05,
      "inclination_deg": 53.1593,
      "raan_deg": 220.7506,
      "arg_perigee_deg": 73.8813,
      "mean_anomaly_deg": 286.2275,
      "mean_motion_rev_day": 15.30198394
    }
  ]
}