{"fetched_at":"2026-03-29T16:36:15Z","count":15609,"tles":[{"name":"STARLINK-31337","line1":"1 58934U 24027D   26087.77650899  .00002370  00000+0  92109-4 0  9994","line2":"2 58934  53.1593 220.7506 0000794  73.8813 286.2275 15.30198394120254","category":"Starlink"}]}